{
  "norad_id": 62904,
  "name": "COSMOS 2583",
  "history": [
    {
      "epoch": "2026-03-28T16:45:54.795168Z",
      "apogee_km": 589.3625428613786,
      "perigee_km": 576.6904408408118,
      "latitude_deg": -2.6014082897606323e-05,
      "longitude_deg": 79.01732415894578,
      "height_km": 580.6381677022125,
      "semi_major_axis_km": 6961.1634918510945,
      "eccentricity": 0.0009102,
      "inclination_deg": 81.9971,
      "raan_deg": 156.6109,
      "arg_perigee_deg": 328.9999,
      "mean_anomaly_deg": 31.0682,
      "mean_motion_rev_day": 14.94789406
    }
  ]
}